BEIDOU-2 IGSO-1 (C06)   
1 36828U 10036A   25126.45389650 -.00000078  00000+0  00000+0 0  9997
2 36828  54.2678 166.6369 0049231 217.0298 110.5052  1.00289606 54146
BEIDOU-2 G4 (C04)       
1 37210U 10057A   25125.84376411 -.00000118  00000+0  00000+0 0  9994
2 37210   2.6381  70.4563 0005063 203.3895  53.8086  1.00273119 53196
BEIDOU-2 IGSO-2 (C07)   
1 37256U 10068A   25125.74562235 -.00000211  00000+0  00000+0 0  9990
2 37256  48.2850 276.8647 0041253 210.3715 109.7183  1.00249065 52706
BEIDOU-2 IGSO-3 (C08)   
1 37384U 11013A   25125.70253008 -.00000207  00000+0  00000+0 0  9999
2 37384  61.8294  44.0127 0029763 180.1024   1.1901  1.00277182 51576
BEIDOU-2 IGSO-4 (C09)   
1 37763U 11038A   25125.75688086 -.00000024  00000+0  00000+0 0  9997
2 37763  54.5706 169.3165 0142203 230.7808 190.0018  1.00286485 50565
BEIDOU-2 IGSO-5 (C10)   
1 37948U 11073A   25125.40322589 -.00000215  00000+0  00000+0 0  9998
2 37948  48.4232 276.5718 0103294 218.9917 327.4160  1.00258342 49043
BEIDOU-2 G5 (C05)       
1 38091U 12008A   25125.89502348  .00000052  00000+0  00000+0 0  9991
2 38091   2.5609  71.2572 0010659 265.6947 267.9430  1.00269445 48283
BEIDOU-2 M3 (C11)       
1 38250U 12018A   25125.10292310 -.00000068  00000+0  00000+0 0  9996
2 38250  56.1012 318.5921 0020459 270.9053  88.8693  1.86233710 88346
BEIDOU-2 M4 (C12)       
1 38251U 12018B   25126.10859769 -.00000069  00000+0  00000+0 0  9996
2 38251  56.0038 317.8051 0011392 275.1515  84.7274  1.86232160 88715
BEIDOU-2 M6 (C14)       
1 38775U 12050B   25125.28171102 -.00000016  00000+0  00000+0 0  9991
2 38775  56.1860  76.4199 0014600 342.1877  17.7322  1.86231003 85714
BEIDOU-2 G6 (C02)       
1 38953U 12059A   25125.87961262 -.00000181  00000+0  00000+0 0  9990
2 38953   3.3877  77.7098 0010384 311.5558 235.4286  1.00272742 45824
BEIDOU-3S IGSO-1S (C31) 
1 40549U 15019A   25125.44420708 -.00000172  00000+0  00000+0 0  9991
2 40549  49.9680 300.3562 0038399 190.8758 346.1125  1.00287594 36983
BEIDOU-3S M2S (C58)     
1 40748U 15037A   25125.77437123 -.00000069  00000+0  00000+0 0  9992
2 40748  55.2268 316.0339 0007873 261.4128  98.5040  1.86229228 66533
BEIDOU-3S M1S (C57)     
1 40749U 15037B   25126.03377112 -.00000070  00000+0  00000+0 0  9996
2 40749  55.2231 316.0173 0003956  24.6411 335.3841  1.86253881 66524
BEIDOU-3S IGSO-2S (C56) 
1 40938U 15053A   25126.33117000 -.00000169  00000+0  00000+0 0  9994
2 40938  49.8539 263.6077 0058244 187.0728 349.1093  1.00277225 35262
BEIDOU-2 IGSO-6 (C13)   
1 41434U 16021A   25124.79818655 -.00000167  00000+0  00000+0 0  9992
2 41434  59.6525  42.1143 0054441 230.6088 329.9384  1.00294738 33389
BEIDOU-2 G7 (C03)       
1 41586U 16037A   25125.90527537 -.00000359  00000+0  00000+0 0  9990
2 41586   1.6636  68.3799 0010192 340.6714 251.2956  1.00266486  2801
BEIDOU-3 M1 (C19)       
1 43001U 17069A   25126.12132240 -.00000020  00000+0  00000+0 0  9993
2 43001  56.3363  76.5298 0012037 312.8934  46.9759  1.86231407 51026
BEIDOU-3 M2 (C20)       
1 43002U 17069B   25126.05919786 -.00000019  00000+0  00000+0 0  9992
2 43002  56.3350  76.5682 0010030 333.5695  26.3497  1.86230896 51016
BEIDOU-3 M7 (C27)       
1 43107U 18003A   25125.80527689 -.00000072  00000+0  00000+0 0  9995
2 43107  54.6854 316.4818 0005011  76.3343 283.7280  1.86232562 49775
BEIDOU-3 M8 (C28)       
1 43108U 18003B   25125.21140453 -.00000070  00000+0  00000+0 0  9999
2 43108  54.6787 316.4863 0002388 273.1357  86.8429  1.86231003 49762
BEIDOU-3 M4 (C22)       
1 43207U 18018A   25126.18950007 -.00000020  00000+0  00000+0 0  9991
2 43207  56.2952  76.6056 0007666 355.7149   4.2487  1.86231323 49160
BEIDOU-3 M3 (C21)       
1 43208U 18018B   25125.18211950 -.00000015  00000+0  00000+0 0  9992
2 43208  56.2937  76.6429 0009937 324.2162  35.6885  1.86231250 49144
BEIDOU-3 M9 (C29)       
1 43245U 18029A   25125.93736756 -.00000070  00000+0  00000+0 0  9995
2 43245  54.5588 314.1522 0000606  77.3527 282.6574  1.86232836 48315
BEIDOU-3 M10 (C30)      
1 43246U 18029B   25125.86923663 -.00000070  00000+0  00000+0 0  9993
2 43246  54.5566 314.1826 0004512  27.4142 332.6131  1.86229155 48302
BEIDOU-2 IGSO-7 (C16)   
1 43539U 18057A   25124.01529353 -.00000105  00000+0  00000+0 0  9992
2 43539  55.1580 166.6027 0088638 236.2769 298.0893  1.00270432 25023
BEIDOU-3 M5 (C23)       
1 43581U 18062A   25125.02068696 -.00000022  00000+0  00000+0 0  9993
2 43581  54.1004 196.1816 0004292 280.0010  80.0082  1.86228752 46039
BEIDOU-3 M6 (C24)       
1 43582U 18062B   25125.95885406 -.00000016  00000+0  00000+0 0  9995
2 43582  54.0999 196.1391 0004434  16.7684 343.3048  1.86229556 46051
BEIDOU-3 M12 (C26)      
1 43602U 18067A   25126.43123771 -.00000008  00000+0  00000+0 0  9998
2 43602  54.1932 194.8340 0007253  27.8680 332.2320  1.86227929 45547
BEIDOU-3 M11 (C25)      
1 43603U 18067B   25125.49124799 -.00000017  00000+0  00000+0 0  9995
2 43603  54.1904 194.8304 0003990  14.2278 345.8427  1.86227369 45551
BEIDOU-3 M13 (C32)      
1 43622U 18072A   25124.37628418 -.00000014  00000+0  00000+0 0  9992
2 43622  56.2656  76.1881 0008610 312.8993  46.9996  1.86231304 45044
BEIDOU-3 M14 (C33)      
1 43623U 18072B   25125.31567480 -.00000017  00000+0  00000+0 0  9992
2 43623  56.2682  76.1505 0006682 336.4961  23.4446  1.86231308 45056
BEIDOU-3 M16 (C35)      
1 43647U 18078A   25126.54987301 -.00000073  00000+0  00000+0 0  9990
2 43647  54.4550 314.2034 0007801  30.3331 329.7155  1.86232367 44597
BEIDOU-3 M15 (C34)      
1 43648U 18078B   25126.14217174 -.00000071  00000+0  00000+0 0  9999
2 43648  54.4511 314.2193 0004893  43.1602 316.8816  1.86232355 44602
BEIDOU-3 G1 (C59)       
1 43683U 18085A   25125.91118323 -.00000283  00000+0  00000+0 0  9991
2 43683   3.0024  99.1288 0004358  10.2402 222.7110  1.00268694 23973
BEIDOU-3 M17 (C36)      
1 43706U 18093A   25125.22315426 -.00000021  00000+0  00000+0 0  9993
2 43706  54.1837 196.1369 0009099 284.8842  75.0729  1.86228466 43941
BEIDOU-3 M18 (C37)      
1 43707U 18093B   25125.08590565 -.00000022  00000+0  00000+0 0  9998
2 43707  54.1845 196.1334 0007104 314.7474  45.2526  1.86229921 43932
BEIDOU-3 IGSO-1 (C38)   
1 44204U 19023A   25125.67046157 -.00000236  00000+0  00000+0 0  9990
2 44204  58.1185  41.8596 0020751 226.2868 314.6552  1.00258533  3125
BEIDOU-2 G8 (C01)       
1 44231U 19027A   25125.84072330 -.00000254  00000+0  00000+0 0  9995
2 44231   1.5865  74.9196 0004778 257.0619 339.1232  1.00268928 21993
BEIDOU-3 IGSO-2 (C39)   
1 44337U 19035A   25125.49573682 -.00000094  00000+0  00000+0 0  9990
2 44337  55.2018 162.4409 0035721 209.7894 149.2072  1.00284587 21606
BEIDOU-3 M24 (C46)      
1 44542U 19061A   25126.23059556 -.00000013  00000+0  00000+0 0  9990
2 44542  54.4114 196.4532 0007574 357.0178   3.0366  1.86229125 38212
BEIDOU-3 M23 (C45)      
1 44543U 19061B   25125.82336362 -.00000017  00000+0  00000+0 0  9992
2 44543  54.4098 196.4355 0004780 337.8640  21.8759  1.86229334 38208
BEIDOU-3 IGSO-3 (C40)   
1 44709U 19073A   25124.84342237 -.00000194  00000+0  00000+0 0  9994
2 44709  55.5022 285.2974 0043841 182.0853 177.8166  1.00258427 20365
BEIDOU-3 M22 (C44)      
1 44793U 19078A   25125.53632624 -.00000070  00000+0  00000+0 0  9994
2 44793  54.3029 314.1312 0006858  37.9825 322.0689  1.86232199 37054
BEIDOU-3 M21 (C43)      
1 44794U 19078B   25126.20578676 -.00000072  00000+0  00000+0 0  9998
2 44794  54.2757 314.0771 0004805  36.1315 323.9042  1.86227850 37078
BEIDOU-3 M19 (C41)      
1 44864U 19090A   25124.29697705 -.00000014  00000+0  00000+0 0  9998
2 44864  56.2002  76.3436 0019411 290.7726  63.0297  1.86231584 36612
BEIDOU-3 M20 (C42)      
1 44865U 19090B   25125.57291764 -.00000017  00000+0  00000+0 0  9999
2 44865  56.2029  76.3351 0017233 303.3467 275.5750  1.86231576 36627
BEIDOU-3 G2 (C60)       
1 45344U 20017A   25125.89928062 -.00000147  00000+0  00000+0 0  9990
2 45344   2.8024  39.5496 0002564 345.5215 242.7024  1.00271411 19172
BEIDOU-3 G3 (C61)       
1 45807U 20040A   25125.90536225 -.00000360  00000+0  00000+0 0  9995
2 45807   1.4646  63.0158 0002420 323.6383 273.8157  1.00268676 17980
BEIDOU-3 G4 (C62)       
1 56564U 23066A   25125.84376411 -.00000121  00000+0  00000+0 0  9995
2 56564   1.3250 291.5957 0005371 176.0040 220.0880  1.00273094  7318
BEIDOU-3 M28 (C50)      
1 58654U 23207A   25125.74883945 -.00000020  00000+0  00000+0 0  9996
2 58654  55.3889  76.0879 0004402 314.4093  45.5258  1.86229939  9253
BEIDOU-3 M26 (C48)      
1 58655U 23207B   25126.08538948 -.00000022  00000+0  00000+0 0  9997
2 58655  55.3913  76.0625 0004766 295.3560  64.5654  1.86231703  9242
BEIDOU-3 M25 (C47)      
1 61186U 24168B   25126.16732965 -.00000072  00000+0  00000+0 0  9996
2 61186  54.8301 316.3475 0003423 306.4941 226.3268  1.86230254  4209
BEIDOU-3 M27 (C49)      
1 61187U 24168C   25125.70931338 -.00000071  00000+0  00000+0 0  9990
2 61187  54.8259 316.3478 0002336  30.4768 330.1449  1.86230328  1673
